ORBCOMM FM37            
1 33064U 08031E   24213.89995539  .00003308  00000+0  49408-3 0  9998
2 33064  48.4408  63.3793 0005371  86.9627  41.0902 14.76924550866651
ORBCOMM FM40            
1 33065U 08031F   24213.87961249  .00004967  00000+0  70296-3 0  9999
2 33065  48.4430  52.0164 0006622  97.7263 351.8616 14.78374497866701
VESSELSAT 1             
1 37840U 11058C   24213.73743246  .00000442  00000+0  96704-4 0  9994
2 37840  19.9605 232.7099 0013511 261.9618  97.9253 14.11181122660986
ORBCOMM FM109           
1 40086U 14040A   24213.87916019  .00001863  00000+0  44843-3 0  9993
2 40086  47.0041  87.7693 0002257 281.8362  78.2270 14.56884360534331
ORBCOMM FM107           
1 40087U 14040B   24213.91294223  .00001365  00000+0  33867-3 0  9996
2 40087  47.0058  88.5839 0001657 252.1058 107.9646 14.56878644534411
ORBCOMM FM106           
1 40088U 14040C   24213.58993454  .00001843  00000+0  35471-3 0  9996
2 40088  47.0615 297.1484 0017451  14.3072 345.8309 14.67373830536351
ORBCOMM FM111           
1 40089U 14040D   24213.40166141  .00005510  00000+0  70054-3 0  9994
2 40089  47.0018 189.3035 0032099  98.9873 261.4657 14.82353242542566
ORBCOMM FM104           
1 40090U 14040E   24213.90117515  .00001259  00000+0  32542-3 0  9998
2 40090  47.0054 118.4896 0016806 183.3545 176.7230 14.55344321533944
